[{"OBJECT_NAME":"HORS 2","OBJECT_ID":"2023-091AG","EPOCH":"2026-03-09T22:11:34.810944","MEAN_MOTION":15.2928008,"ECCENTRICITY":0.00098173,"INCLINATION":97.5195,"RA_OF_ASC_NODE":134.7443,"ARG_OF_PERICENTER":79.3164,"MEAN_ANOMALY":280.9181,"EPHEMERIS_TYPE":0,"CLASSIFICATION_TYPE":"U","NORAD_CAT_ID":57196,"ELEMENT_SET_NO":999,"REV_AT_EPOCH":14934,"BSTAR":0.00059338338,"MEAN_MOTION_DOT":0.00016821,"MEAN_MOTION_DDOT":0},{"OBJECT_NAME":"STARLINK-35502","OBJECT_ID":"2025-259P","EPOCH":"2026-03-09T22:30:57.169152","MEAN_MOTION":15.27602294,"ECCENTRICITY":0.0001765,"INCLINATION":43.0042,"RA_OF_ASC_NODE":272.5654,"ARG_OF_PERICENTER":281.8342,"MEAN_ANOMALY":78.2312,"EPHEMERIS_TYPE":0,"CLASSIFICATION_TYPE":"U","NORAD_CAT_ID":66435,"ELEMENT_SET_NO":999,"REV_AT_EPOCH":1953,"BSTAR":0.00099151623,"MEAN_MOTION_DOT":0.00027141,"MEAN_MOTION_DDOT":0}]
